EUTELSAT 8 WEST B       
1 40875U 15039B   25355.76229043 -.00000043  00000+0  00000+0 0  9991
2 40875   0.0634   1.1645 0004263 270.5037  85.3354  1.00271124 37876
EUTELSAT 9B             
1 41310U 16005A   25355.76567044  .00000084  00000+0  00000+0 0  9990
2 41310   0.0649  72.3824 0004489 203.7054  99.1333  1.00272970 36333
EUTELSAT 65 WEST A      
1 41382U 16014A   25355.75102368 -.00000254  00000+0  00000+0 0  9992
2 41382   0.0518 335.1829 0002143 298.4226  22.1350  1.00273551 35755
EUTELSAT 117 WEST B     
1 41589U 16038B   25355.66937244  .00000011  00000+0  00000+0 0  9996
2 41589   0.0115 156.0506 0000348 153.6683 264.7522  1.00269911 34886
EUTELSAT 172B           
1 42741U 17029B   25355.79799734  .00000017  00000+0  00000+0 0  9998
2 42741   0.0286 118.0139 0000190 351.4310  80.4526  1.00271664 31956
EUTELSAT 7C             
1 44334U 19034B   25355.76532377  .00000070  00000+0  00000+0 0  9990
2 44334   0.0731 180.5746 0003147  76.0172 116.4878  1.00268905  5056
EUTELSAT 5 WEST B       
1 44624U 19067A   25355.76289711 -.00000020  00000+0  00000+0 0  9995
2 44624   0.0660 337.4911 0003012 292.9250  89.8087  1.00271360 22652
EUTELSAT KONNECT        
1 45027U 20005B   25355.76532377  .00000072  00000+0  00000+0 0  9992
2 45027   0.0699  94.7667 0001298 184.4373  94.0970  1.00271135 22556
